start=new Date('2021-11-06T00:00:00.000Z').valueOf();
sats=[{"OBJECT_NAME":"STARLINK-2261","CENTER_NAME":"EARTH","LAUNCH_DATE":"2021-03-24","GP_ID":"189046421","SEMIMAJOR_AXIS":"6727.983","TLE_LINE1":"1 48004U 21024AD  21310.00001157 -.00092028  00000-0 -65750-3 0  9995","APOAPSIS":"355.579","DECAY_DATE":null,"MEAN_ANOMALY":"72.8770","FILE":"3204412","RCS_SIZE":"LARGE","BSTAR":"-0.00065750000000","CLASSIFICATION_TYPE":"U","PERIAPSIS":"344.116","OBJECT_ID":"2021-024AD","TIME_SYSTEM":"UTC","COUNTRY_CODE":"US","SITE":"AFETR","EPOCH":"2021-11-06T00:00:00.999648","ECCENTRICITY":"0.00085190","TLE_LINE2":"2 48004  53.0411 157.8821 0008519 284.0490  72.8770 15.73169268  3680","OBJECT_TYPE":"PAYLOAD","ELEMENT_SET_NO":"999","EPHEMERIS_TYPE":"0","MEAN_MOTION_DOT":"-0.00092028","MEAN_MOTION_DDOT":"0.0000000000000","REF_FRAME":"TEME","MEAN_ELEMENT_THEORY":"SGP4","INCLINATION":"53.0411","REV_AT_EPOCH":"368","NORAD_CAT_ID":"48004","MEAN_MOTION":"15.73169268","RA_OF_ASC_NODE":"157.8821","PERIOD":"91.535","ARG_OF_PERICENTER":"284.0490"},{"DECAY_DATE":null,"TLE_LINE1":"1 48005U 21024AE  21309.69941190  .00002111  00000-0  16054-3 0  9994","APOAPSIS":"549.444","SEMIMAJOR_AXIS":"6925.295","LAUNCH_DATE":"2021-03-24","GP_ID":"189046648","OBJECT_NAME":"STARLINK-2254","CENTER_NAME":"EARTH","SITE":"AFETR","COUNTRY_CODE":"US","PERIAPSIS":"544.876","OBJECT_ID":"2021-024AE","TIME_SYSTEM":"UTC","BSTAR":"0.00016054000000","CLASSIFICATION_TYPE":"U","FILE":"3204412","RCS_SIZE":"LARGE","MEAN_ANOMALY":"282.8879","EPHEMERIS_TYPE":"0","MEAN_MOTION_DOT":"0.00002111","REF_FRAME":"TEME","MEAN_MOTION_DDOT":"0.0000000000000","ELEMENT_SET_NO":"999","ECCENTRICITY":"0.00032980","EPOCH":"2021-11-05T16:47:09.188160","OBJECT_TYPE":"PAYLOAD","TLE_LINE2":"2 48005  53.0575 221.9141 0003298  77.2478 282.8879 15.06417404 36028","MEAN_MOTION":"15.06417404","RA_OF_ASC_NODE":"221.9141","ARG_OF_PERICENTER":"77.2478","PERIOD":"95.591","REV_AT_EPOCH":"3602","NORAD_CAT_ID":"48005","INCLINATION":"53.0575","MEAN_ELEMENT_THEORY":"SGP4"},{"ARG_OF_PERICENTER":"281.4837","PERIOD":"90.752","RA_OF_ASC_NODE":"156.6661","MEAN_MOTION":"15.86747212","NORAD_CAT_ID":"48006","REV_AT_EPOCH":"368","MEAN_ELEMENT_THEORY":"SGP4","INCLINATION":"53.0529","MEAN_MOTION_DDOT":"0.0000000000000","REF_FRAME":"TEME","MEAN_MOTION_DOT":"0.00789720","EPHEMERIS_TYPE":"0","ELEMENT_SET_NO":"999","OBJECT_TYPE":"PAYLOAD","TLE_LINE2":"2 48006  53.0529 156.6661 0003291 281.4837 303.5870 15.86747212  3689","EPOCH":"2021-11-06T00:00:00.999648","ECCENTRICITY":"0.00032910","SITE":"AFETR","COUNTRY_CODE":"US","OBJECT_ID":"2021-024AF","TIME_SYSTEM":"UTC","PERIAPSIS":"309.210","CLASSIFICATION_TYPE":"U","BSTAR":"0.00276770000000","MEAN_ANOMALY":"303.5870","RCS_SIZE":"LARGE","FILE":"3204412","DECAY_DATE":null,"SEMIMAJOR_AXIS":"6689.547","APOAPSIS":"313.613","TLE_LINE1":"1 48006U 21024AF  21310.00001157  .00789720  00000-0  27677-2 0  9992","GP_ID":"189045919","LAUNCH_DATE":"2021-03-24","CENTER_NAME":"EARTH","OBJECT_NAME":"STARLINK-2277"},{"PERIAPSIS":"348.705","TIME_SYSTEM":"UTC","OBJECT_ID":"2021-024AG","SITE":"AFETR","COUNTRY_CODE":"US","MEAN_ANOMALY":"335.1799","FILE":"3204412","RCS_SIZE":"LARGE","BSTAR":"-0.00204910000000","CLASSIFICATION_TYPE":"U","SEMIMAJOR_AXIS":"6728.158","TLE_LINE1":"1 48007U 21024AG  21310.00001157 -.00277895  00000-0 -20491-2 0  9997","APOAPSIS":"351.341","DECAY_DATE":null,"OBJECT_NAME":"STARLINK-2259","CENTER_NAME":"EARTH","LAUNCH_DATE":"2021-03-24","GP_ID":"189046161","MEAN_MOTION":"15.73107977","RA_OF_ASC_NODE":"157.8791","PERIOD":"91.539","ARG_OF_PERICENTER":"22.9615","MEAN_ELEMENT_THEORY":"SGP4","INCLINATION":"53.0410","REV_AT_EPOCH":"368","NORAD_CAT_ID":"48007","ELEMENT_SET_NO":"999","EPHEMERIS_TYPE":"0","MEAN_MOTION_DOT":"-0.00277895","MEAN_MOTION_DDOT":"0.0000000000000","REF_FRAME":"TEME","EPOCH":"2021-11-06T00:00:00.999648","ECCENTRICITY":"0.00019590","OBJECT_TYPE":"PAYLOAD","TLE_LINE2":"2 48007  53.0410 157.8791 0001959  22.9615 335.1799 15.73107977  3682"},{"CLASSIFICATION_TYPE":"U","BSTAR":"-0.01436900000000","MEAN_ANOMALY":"102.3586","FILE":"3204412","RCS_SIZE":"LARGE","SITE":"AFETR","COUNTRY_CODE":"US","TIME_SYSTEM":"UTC","OBJECT_ID":"2021-024AH","PERIAPSIS":"422.051","GP_ID":"189046921","LAUNCH_DATE":"2021-03-24","CENTER_NAME":"EARTH","OBJECT_NAME":"STARLINK-2271","DECAY_DATE":null,"SEMIMAJOR_AXIS":"6801.117","TLE_LINE1":"1 48008U 21024AH  21310.00001157 -.00704547  00000-0 -14369-1 0  9993","APOAPSIS":"423.913","NORAD_CAT_ID":"48008","REV_AT_EPOCH":"367","MEAN_ELEMENT_THEORY":"SGP4","INCLINATION":"53.0429","PERIOD":"93.032","ARG_OF_PERICENTER":"70.5401","MEAN_MOTION":"15.47862694","RA_OF_ASC_NODE":"159.5707","OBJECT_TYPE":"PAYLOAD","TLE_LINE2":"2 48008  53.0429 159.5707 0001369  70.5401 102.3586 15.47862694  3678","EPOCH":"2021-11-06T00:00:00.999648","ECCENTRICITY":"0.00013690","MEAN_MOTION_DDOT":"0.0000000000000","REF_FRAME":"TEME","EPHEMERIS_TYPE":"0","MEAN_MOTION_DOT":"-0.00704547","ELEMENT_SET_NO":"999"},{"RA_OF_ASC_NODE":"231.5286","MEAN_MOTION":"15.06395713","PERIOD":"95.592","ARG_OF_PERICENTER":"66.1171","MEAN_ELEMENT_THEORY":"SGP4","INCLINATION":"53.0561","REV_AT_EPOCH":"3590","NORAD_CAT_ID":"48009","ELEMENT_SET_NO":"999","MEAN_MOTION_DOT":"-0.00000224","EPHEMERIS_TYPE":"0","REF_FRAME":"TEME","MEAN_MOTION_DDOT":"0.0000000000000","EPOCH":"2021-11-05T18:46:35.367456","ECCENTRICITY":"0.00017640","TLE_LINE2":"2 48009  53.0561 231.5286 0001764  66.1171 294.0002 15.06395713 35904","OBJECT_TYPE":"PAYLOAD","PERIAPSIS":"546.005","TIME_SYSTEM":"UTC","OBJECT_ID":"2021-024AJ","SITE":"AFETR","COUNTRY_CODE":"US","MEAN_ANOMALY":"294.0002","FILE":"3204412","RCS_SIZE":"LARGE","BSTAR":"0.00000389750000","CLASSIFICATION_TYPE":"U","SEMIMAJOR_AXIS":"6925.362","TLE_LINE1":"1 48009U 21024AJ  21309.78235379 -.00000224  00000-0  38975-5 0  9995","APOAPSIS":"548.448","DECAY_DATE":null,"OBJECT_NAME":"STARLINK-2153","CENTER_NAME":"EARTH","LAUNCH_DATE":"2021-03-24","GP_ID":"189047148"},{"MEAN_ELEMENT_THEORY":"SGP4","INCLINATION":"53.0524","NORAD_CAT_ID":"48010","REV_AT_EPOCH":"3563","ARG_OF_PERICENTER":"67.8046","PERIOD":"95.593","RA_OF_ASC_NODE":"251.2158","MEAN_MOTION":"15.06393749","TLE_LINE2":"2 48010  53.0524 251.2158 0001724  67.8046 292.3126 15.06393749 35632","OBJECT_TYPE":"PAYLOAD","EPOCH":"2021-11-05T20:36:45.641376","ECCENTRICITY":"0.00017240","ELEMENT_SET_NO":"999","REF_FRAME":"TEME","MEAN_MOTION_DDOT":"0.0000000000000","MEAN_MOTION_DOT":"-0.00000040","EPHEMERIS_TYPE":"0","MEAN_ANOMALY":"292.3126","FILE":"3204412","RCS_SIZE":"LARGE","CLASSIFICATION_TYPE":"U","BSTAR":"0.00001623600000","OBJECT_ID":"2021-024AK","TIME_SYSTEM":"UTC","PERIAPSIS":"546.039","SITE":"AFETR","COUNTRY_CODE":"US","CENTER_NAME":"EARTH","OBJECT_NAME":"STARLINK-2226","GP_ID":"189045420","LAUNCH_DATE":"2021-03-24","SEMIMAJOR_AXIS":"6925.368","TLE_LINE1":"1 48010U 21024AK  21309.85886159 -.00000040  00000-0  16236-4 0  9994","APOAPSIS":"548.427","DECAY_DATE":null},{"GP_ID":"189012583","LAUNCH_DATE":"2021-03-24","CENTER_NAME":"EARTH","OBJECT_NAME":"STARLINK-2272","DECAY_DATE":null,"TLE_LINE1":"1 48011U 21024AL  21309.48378799  .00004171  00000-0  29870-3 0  9995","APOAPSIS":"548.436","SEMIMAJOR_AXIS":"6925.330","CLASSIFICATION_TYPE":"U","BSTAR":"0.00029870000000","RCS_SIZE":"LARGE","FILE":"3203969","MEAN_ANOMALY":"284.4128","SITE":"AFETR","COUNTRY_CODE":"US","OBJECT_ID":"2021-024AL","TIME_SYSTEM":"UTC","PERIAPSIS":"545.954","OBJECT_TYPE":"PAYLOAD","TLE_LINE2":"2 48011  53.0544 232.8669 0001792  75.7060 284.4128 15.06406187 35912","ECCENTRICITY":"0.00017920","EPOCH":"2021-11-05T11:36:39.282336","REF_FRAME":"TEME","MEAN_MOTION_DDOT":"0.0000000000000","MEAN_MOTION_DOT":"0.00004171","EPHEMERIS_TYPE":"0","ELEMENT_SET_NO":"999","NORAD_CAT_ID":"48011","REV_AT_EPOCH":"3591","INCLINATION":"53.0544","MEAN_ELEMENT_THEORY":"SGP4","PERIOD":"95.592","ARG_OF_PERICENTER":"75.7060","RA_OF_ASC_NODE":"232.8669","MEAN_MOTION":"15.06406187"},{"ELEMENT_SET_NO":"999","MEAN_MOTION_DOT":"0.00004701","EPHEMERIS_TYPE":"0","REF_FRAME":"TEME","MEAN_MOTION_DDOT":"0.0000000000000","EPOCH":"2021-11-05T18:06:07.773696","ECCENTRICITY":"0.00014700","OBJECT_TYPE":"PAYLOAD","TLE_LINE2":"2 48012  53.0550 206.6551 0001470  68.9081 291.2065 15.06416944 36301","MEAN_MOTION":"15.06416944","RA_OF_ASC_NODE":"206.6551","ARG_OF_PERICENTER":"68.9081","PERIOD":"95.591","MEAN_ELEMENT_THEORY":"SGP4","INCLINATION":"53.0550","REV_AT_EPOCH":"3630","NORAD_CAT_ID":"48012","SEMIMAJOR_AXIS":"6925.297","APOAPSIS":"548.180","TLE_LINE1":"1 48012U 21024AM  21309.75425664  .00004701  00000-0  33415-3 0  9999","DECAY_DATE":null,"OBJECT_NAME":"STARLINK-2216","CENTER_NAME":"EARTH","LAUNCH_DATE":"2021-03-24","GP_ID":"189046422","PERIAPSIS":"546.144","OBJECT_ID":"2021-024AM","TIME_SYSTEM":"UTC","SITE":"AFETR","COUNTRY_CODE":"US","MEAN_ANOMALY":"291.2065","FILE":"3204412","RCS_SIZE":"LARGE","BSTAR":"0.00033415000000","CLASSIFICATION_TYPE":"U"},{"COUNTRY_CODE":"US","SITE":"AFETR","OBJECT_ID":"2021-024AN","TIME_SYSTEM":"UTC","PERIAPSIS":"546.261","CLASSIFICATION_TYPE":"U","BSTAR":"0.00003146700000","MEAN_ANOMALY":"282.4087","RCS_SIZE":"LARGE","FILE":"3204412","DECAY_DATE":null,"SEMIMAJOR_AXIS":"6925.360","APOAPSIS":"548.189","TLE_LINE1":"1 48013U 21024AN  21309.77177678  .00000187  00000-0  31467-4 0  9991","GP_ID":"189046649","LAUNCH_DATE":"2021-03-24","CENTER_NAME":"EARTH","OBJECT_NAME":"STARLINK-2243","ARG_OF_PERICENTER":"77.7058","PERIOD":"95.592","RA_OF_ASC_NODE":"216.5960","MEAN_MOTION":"15.06396215","NORAD_CAT_ID":"48013","REV_AT_EPOCH":"3611","MEAN_ELEMENT_THEORY":"SGP4","INCLINATION":"53.0544","MEAN_MOTION_DDOT":"0.0000000000000","REF_FRAME":"TEME","MEAN_MOTION_DOT":"0.00000187","EPHEMERIS_TYPE":"0","ELEMENT_SET_NO":"999","OBJECT_TYPE":"PAYLOAD","TLE_LINE2":"2 48013  53.0544 216.5960 0001392  77.7058 282.4087 15.06396215 36117","EPOCH":"2021-11-05T18:31:21.513792","ECCENTRICITY":"0.00013920"}];
